{"version": 0.6, "generator": "Overpass API 0.7.62.1 084b4234", "osm3s": {"timestamp_osm_base": "2024-05-27T17:51:55Z", "copyright": "The data included in this document is from www.openstreetmap.org. The data is made available under ODbL."}, "elements": [{"type": "node", "id": 2447270561, "lat": 42.1007236, "lon": -75.9117413, "tags": {"amenity": "restaurant", "name": "Burger Mondays", "opening_hours": "Mo-Sa 11:30-24:00", "payment:cash": "yes", "payment:visa": "yes", "wheelchair": "no", "wheelchair:description": "step at front door"}}, {"type": "node", "id": 2478517252, "lat": 42.1119398, "lon": -75.9052757}, {"type": "node", "id": 2478517255, "lat": 42.1091695, "lon": -75.9067235}, {"type": "node", "id": 2478517256, "lat": 42.1092518, "lon": -75.9070094}, {"type": "node", "id": 2478517257, "lat": 42.1091035, "lon": -75.9070869}, {"type": "node", "id": 2478517258, "lat": 42.109253, "lon": -75.9076069}, {"type": "node", "id": 2478517259, "lat": 42.1093567, "lon": -75.9075527}, {"type": "node", "id": 2478517260, "lat": 42.1093839, "lon": -75.9076472}, {"type": "node", "id": 2478517261, "lat": 42.1098182, "lon": -75.9074206}, {"type": "node", "id": 2478517262, "lat": 42.109721, "lon": -75.9070819}, {"type": "node", "id": 2478517263, "lat": 42.1099229, "lon": -75.9069766}, {"type": "node", "id": 2478517264, "lat": 42.1100242, "lon": -75.9073297}, {"type": "node", "id": 2478517265, "lat": 42.1107555, "lon": -75.9069486}, {"type": "node", "id": 2478517266, "lat": 42.1106159, "lon": -75.9064621}, {"type": "node", "id": 2478517267, "lat": 42.1106696, "lon": -75.9064341}, {"type": "node", "id": 2478517268, "lat": 42.1106354, "lon": -75.9063148}, {"type": "node", "id": 2478517269, "lat": 42.1107403, "lon": -75.9062602}, {"type": "node", "id": 2478517270, "lat": 42.1108046, "lon": -75.9064846}, {"type": "node", "id": 2478517271, "lat": 42.1109637, "lon": -75.9064017}, {"type": "node", "id": 2478517272, "lat": 42.1109254, "lon": -75.9062677}, {"type": "node", "id": 2478517273, "lat": 42.11099, "lon": -75.9062341}, {"type": "node", "id": 2478517274, "lat": 42.1111347, "lon": -75.9067395}, {"type": "node", "id": 2478517275, "lat": 42.1112352, "lon": -75.9066872}, {"type": "node", "id": 2478517276, "lat": 42.1112694, "lon": -75.9068066}, {"type": "node", "id": 2478517277, "lat": 42.112162, "lon": -75.9063423}, {"type": "node", "id": 2478517278, "lat": 42.1120794, "lon": -75.9060536}, {"type": "node", "id": 2478517279, "lat": 42.1121875, "lon": -75.9059974}, {"type": "node", "id": 2478517280, "lat": 42.1119756, "lon": -75.9052571}, {"type": "node", "id": 2718233115, "lat": 42.0959304, "lon": -75.9260424, "tags": {"amenity": "restaurant", "cuisine": "beef", "name": "The Beef"}}, {"type": "node", "id": 2718234468, "lat": 42.0956438, "lon": -75.926323, "tags": {"amenity": "restaurant", "cuisine": "pizza", "name": "Leroy Pizza & Subs"}}, {"type": "node", "id": 3052040793, "lat": 42.1031954, "lon": -75.930436}, {"type": "node", "id": 3052040794, "lat": 42.1030526, "lon": -75.9305446}, {"type": "node", "id": 3052040795, "lat": 42.1030123, "lon": -75.9304582}, {"type": "node", "id": 3052040796, "lat": 42.1031149, "lon": -75.9302879}, {"type": "node", "id": 4476063229, "lat": 42.0932068, "lon": -75.9050793}, {"type": "node", "id": 4476063230, "lat": 42.0930337, "lon": -75.9050647}, {"type": "node", "id": 4476063231, "lat": 42.0930635, "lon": -75.9047601}, {"type": "node", "id": 4476063232, "lat": 42.0930913, "lon": -75.9047601}, {"type": "node", "id": 4476063233, "lat": 42.0931036, "lon": -75.9047157}, {"type": "node", "id": 4476063234, "lat": 42.0931621, "lon": -75.9047179}, {"type": "node", "id": 4476063235, "lat": 42.0932058, "lon": -75.9047674}, {"type": "node", "id": 4476063236, "lat": 42.0931829, "lon": -75.9049586}, {"type": "node", "id": 4476063237, "lat": 42.0931909, "lon": -75.9050283}, {"type": "node", "id": 4484806703, "lat": 42.0895036, "lon": -75.9140509, "tags": {"addr:city": "Binghamton", "addr:housenumber": "1185", "addr:postcode": "13903", "addr:state": "NY", "addr:street": "Vestal Avenue", "amenity": "restaurant", "capacity": "25", "cuisine": "diner", "diet:vegetarian": "yes", "name": "Manni's Donuts And Diner", "opening_hours": "Tu-Sa 05:30-15:00; Su 05:30-14:30", "phone": "607-723-2217", "smoking": "no", "website": "http://mannisdonutsanddiner.com"}}, {"type": "node", "id": 4723142484, "lat": 42.0974405, "lon": -75.9133887, "tags": {"addr:city": "Binghamton", "addr:housenumber": "15", "addr:postcode": "13901", "addr:state": "NY", "addr:street": "Hawley Street", "amenity": "restaurant", "bar": "yes", "check_date": "2023-06-27", "cuisine": "pizza", "delivery": "yes", "name": "The Stone Fox", "opening_hours": "Tu-Th 11:30-01:00; Fr-Sa 11:30-03:00; Su 11:30-20:00", "outdoor_seating": "yes", "phone": "+16072353312", "website": "https://www.stonefoxbing.com/"}}, {"type": "node", "id": 4723142485, "lat": 42.0975467, "lon": -75.9127092, "tags": {"addr:city": "Binghamton", "addr:housenumber": "77", "addr:postcode": "13901", "addr:state": "NY", "addr:street": "W State Street", "amenity": "restaurant", "name": "Dillinger's Celtic Pub & Eatery", "outdoor_seating": "yes", "toilets:wheelchair": "no", "wheelchair": "no"}}, {"type": "node", "id": 4723149611, "lat": 42.1008218, "lon": -75.9135958, "tags": {"amenity": "restaurant", "name": "Lost Dog Cafe"}}, {"type": "node", "id": 4723186003, "lat": 42.0992867, "lon": -75.9142197, "tags": {"addr:city": "Binghamton", "addr:housenumber": "166", "addr:postcode": "13901", "addr:state": "NY", "addr:street": "Water Street", "addr:unit": "3", "amenity": "restaurant", "name": "Nirchi's Pizza", "nysgissam:nysaddresspointid": "BROO038481;BROO110021", "website": "https://www.nirchis.com/binghamton-water-street.html"}}, {"type": "node", "id": 4723193161, "lat": 42.0994626, "lon": -75.9151764, "tags": {"amenity": "restaurant", "name": "Citrea"}}, {"type": "node", "id": 4723194266, "lat": 42.1013059, "lon": -75.9144509, "tags": {"amenity": "restaurant", "name": "River Bistro", "opening_hours": "Mo 06:30-10:30,16:00-22:00; Tu-Fr 06:00-10:30,16:00-22:00; Sa 06:30-10:30,16:00-22:00; Su 06:30-10:30,17:00-22:00"}}, {"type": "node", "id": 4723195187, "lat": 42.1023212, "lon": -75.9101146}, {"type": "node", "id": 4723195188, "lat": 42.1021337, "lon": -75.9100876}, {"type": "node", "id": 4723195189, "lat": 42.102068, "lon": -75.9095896}, {"type": "node", "id": 4723195190, "lat": 42.1022406, "lon": -75.9095025}, {"type": "node", "id": 4723197375, "lat": 42.1033631, "lon": -75.9092112, "tags": {"amenity": "restaurant", "name": "Remlik's"}}, {"type": "node", "id": 4723199815, "lat": 42.1011342, "lon": -75.9050164, "tags": {"amenity": "restaurant", "name": "Tranquil Bar & Bistro"}}, {"type": "node", "id": 4723212018, "lat": 42.1015534, "lon": -75.9114465, "tags": {"amenity": "restaurant", "name": "Chris' Diner"}}, {"type": "node", "id": 4723229680, "lat": 42.089103, "lon": -75.9152314}, {"type": "node", "id": 4723229681, "lat": 42.0890397, "lon": -75.9153722}, {"type": "node", "id": 4723229682, "lat": 42.088906, "lon": -75.9152629}, {"type": "node", "id": 4723229683, "lat": 42.0888929, "lon": -75.915292}, {"type": "node", "id": 4723229684, "lat": 42.0887757, "lon": -75.9151963}, {"type": "node", "id": 4723229685, "lat": 42.0888521, "lon": -75.9150265}, {"type": "node", "id": 4723230799, "lat": 42.0902393, "lon": -75.9136844}, {"type": "node", "id": 4723230800, "lat": 42.0901405, "lon": -75.913645}, {"type": "node", "id": 4723230801, "lat": 42.0901876, "lon": -75.9134303}, {"type": "node", "id": 4723230802, "lat": 42.0902181, "lon": -75.9134425}, {"type": "node", "id": 4723230803, "lat": 42.0902401, "lon": -75.9133425}, {"type": "node", "id": 4723230804, "lat": 42.0902773, "lon": -75.9133573}, {"type": "node", "id": 4723230805, "lat": 42.090257, "lon": -75.9134498}, {"type": "node", "id": 4723230806, "lat": 42.0902881, "lon": -75.9134622}, {"type": "node", "id": 4723230807, "lat": 42.0899956, "lon": -75.9135917}, {"type": "node", "id": 4723230808, "lat": 42.0898949, "lon": -75.913549}, {"type": "node", "id": 4723230809, "lat": 42.0899538, "lon": -75.9132971}, {"type": "node", "id": 4723230810, "lat": 42.0900545, "lon": -75.9133398}, {"type": "node", "id": 4723230811, "lat": 42.089878, "lon": -75.9135431}, {"type": "node", "id": 4723230812, "lat": 42.0898227, "lon": -75.9135211}, {"type": "node", "id": 4723230813, "lat": 42.089879, "lon": -75.9132645}, {"type": "node", "id": 4723230814, "lat": 42.0899343, "lon": -75.9132865}, {"type": "node", "id": 4906216122, "lat": 42.1018699, "lon": -75.9056947, "tags": {"addr:postcode": "13901", "addr:street": "Henry St.", "amenity": "restaurant", "cuisine": "italian_pizza", "name": "Amici", "opening_hours": "Tu-Sa 09:00-23:00"}}, {"type": "node", "id": 5764720216, "lat": 42.0988528, "lon": -75.9136084, "tags": {"addr:city": "Binghamton", "addr:housenumber": "45", "addr:postcode": "13901", "addr:state": "NY", "addr:street": "Court Street", "amenity": "restaurant", "cuisine": "indian", "name": "Currys of India"}}, {"type": "node", "id": 5846839645, "lat": 42.0979204, "lon": -75.9133257}, {"type": "node", "id": 5846839646, "lat": 42.0979099, "lon": -75.9132535}, {"type": "node", "id": 5846839647, "lat": 42.0978553, "lon": -75.9132679}, {"type": "node", "id": 5846839648, "lat": 42.0978871, "lon": -75.9134871}, {"type": "node", "id": 5846839651, "lat": 42.0979413, "lon": -75.9134728}, {"type": "node", "id": 5846839674, "lat": 42.0981966, "lon": -75.91397}, {"type": "node", "id": 5846839675, "lat": 42.0982017, "lon": -75.9140015}, {"type": "node", "id": 5846839676, "lat": 42.0981531, "lon": -75.9140151}, {"type": "node", "id": 5846839677, "lat": 42.0981464, "lon": -75.9139779}, {"type": "node", "id": 5846839695, "lat": 42.0982159, "lon": -75.9139671}, {"type": "node", "id": 5846839696, "lat": 42.0981582, "lon": -75.9139728}, {"type": "node", "id": 5846839697, "lat": 42.0981153, "lon": -75.9136563}, {"type": "node", "id": 5846839698, "lat": 42.0981687, "lon": -75.9136408}, {"type": "node", "id": 6240792467, "lat": 42.1103169, "lon": -75.9061239}, {"type": "node", "id": 7735192903, "lat": 42.0931564, "lon": -75.9047658}, {"type": "node", "id": 7966602820, "lat": 42.0978741, "lon": -75.9126601, "tags": {"addr:city": "Binghamton", "addr:flats": "1B;201;3;4;5;501", "addr:housenumber": "81", "addr:postcode": "13901", "addr:state": "NY", "addr:street": "State Street", "amenity": "restaurant", "cuisine": "pizza", "name": "DP Dough", "nysgissam:nysaddresspointid": "BROO109914;BROO109832;BROO016159;BROO110161;BROO110255;BROO109804;BROO110257", "opening_hours": "Mo-Su 04:00-04:00", "phone": "6079309300", "website": "https://www.dpdough.com/"}}, {"type": "node", "id": 7966602830, "lat": 42.0985627, "lon": -75.9129082, "tags": {"addr:housenumber": "56-58", "addr:street": "Court Street", "amenity": "restaurant", "bar": "yes", "cuisine": "american", "delivery": "yes", "name": "The Colonial Restaurant", "opening_hours": "Mo-Su 11:30-23:00", "outdoor_seating": "seasonal", "phone": "+16072387741", "website": "https://thecolonialbing.com/"}}, {"type": "node", "id": 7966602831, "lat": 42.0985558, "lon": -75.9127821, "tags": {"addr:city": "Binghamton", "addr:housenumber": "60", "addr:postcode": "13901", "addr:state": "NY", "addr:street": "Court Street", "addr:unit": "1", "amenity": "restaurant", "bar": "yes", "cuisine": "mexican", "delivery": "yes", "name": "Dios Rios Cantina", "nysgissam:nysaddresspointid": "BROO078767;BROO109617", "opening_hours": "Tu-Fr 16:00-23:00; Sa 11:30-23:00, Su 11:30-21:00", "outdoor_seating": "yes", "phone": "+16072355322", "website": "dosrioscantina.com"}}, {"type": "node", "id": 8740294182, "lat": 42.0979114, "lon": -75.9135263, "tags": {"addr:city": "Binghamton", "addr:housenumber": "128", "addr:postcode": "13901", "addr:state": "NY", "addr:street": "Washington Street", "amenity": "restaurant", "delivery": "yes", "name": "Binghamton Hots", "opening_hours": "Mo 11:00-23:00; Tu-Th 11:00-00:00; Fr 11:00-01:00; Sa 16:00-01:00", "phone": "+16072964687", "website": "https://binghamtonhots.com/"}}, {"type": "node", "id": 8793443588, "lat": 42.1050376, "lon": -75.9071368, "tags": {"addr:city": "Binghamton", "addr:housenumber": "213", "addr:postcode": "13901", "addr:state": "NY", "addr:street": "Chenango Street", "amenity": "restaurant", "cuisine": "barbecue", "name": "BIG ZUES Barbecue", "nysgissam:nysaddresspointid": "BROO112402", "opening_hours": "Fr-Su 11:00-20:00", "phone": "607) 338-2341", "website": "https://bigzuesbarbecue.com/"}}, {"type": "node", "id": 8793444956, "lat": 42.1046663, "lon": -75.8769644, "tags": {"addr:city": "Binghamton", "addr:housenumber": "465", "addr:postcode": "13904", "addr:state": "NY", "addr:street": "Court Street", "amenity": "restaurant", "cuisine": "pizza;italian", "name": "Michelangelo's Pizzeria & Ristorante", "nysgissam:nysaddresspointid": "BROO084806", "opening_hours": "Mo-Su 11:00-21:00", "phone": "(607) 724-4045", "website": "http://www.michelangelosristorante.com/"}}, {"type": "node", "id": 8793450754, "lat": 42.107792, "lon": -75.9316263}, {"type": "node", "id": 8793484989, "lat": 42.1076319, "lon": -75.8840994, "tags": {"addr:city": "Binghamton", "addr:housenumber": "224", "addr:postcode": "13904", "addr:state": "NY", "addr:street": "Robinson Street", "amenity": "restaurant", "cuisine": "pizza;subs;calzone;stromboli", "name": "Pudgie's Pizza", "nysgissam:nysaddresspointid": "BROO019347", "opening_hours": "Mo-Su 10:30-22:00", "phone": "607-235-3133", "website": "https://order.pudgiespizza.com/#/locations"}}, {"type": "node", "id": 8793520983, "lat": 42.1079201, "lon": -75.8855081, "tags": {"addr:city": "Binghamton", "addr:housenumber": "199", "addr:postcode": "13904", "addr:state": "NY", "addr:street": "Robinson Street", "amenity": "restaurant", "cuisine": "chinese", "name": "New Panda", "nysgissam:nysaddresspointid": "BROO035881", "opening_hours": "Mo-Su 11:00-22:00", "phone": "(607) 772-0250", "website": "https://www.newpandachineserestaurant.com/menu/4944961"}}, {"type": "node", "id": 10861148539, "lat": 42.106174, "lon": -75.888869, "tags": {"addr:city": "Binghamton", "addr:housenumber": "160", "addr:postcode": "13904", "addr:state": "NY", "addr:street": "Robinson Street", "amenity": "restaurant", "cuisine": "chinese", "name": "Dragon Star", "phone": "(607) 772-8877", "website": "https://www.bringmethat.com/t/ny/binghamton/13904/china-wok?logo=http%3A%2F%2Fassets.singleapi.com%2Fpub394.png&ref=sp-d81fa86454564fe25e5ef60b2ad47054&refurl=http%3A%2F%2Fplaces.singleplatform.com%2F"}}, {"type": "node", "id": 10882009463, "lat": 42.1073787, "lon": -75.9359585, "tags": {"addr:city": "Binghamton", "addr:housenumber": "10", "addr:postcode": "13905", "addr:state": "NY", "addr:street": "Glenwood Avenue", "amenity": "restaurant", "cuisine": "chinese", "name": "Long Feng", "opening_hours": "Mo-Su 11:00-22:00", "phone": "(607) 729-1888", "website": "http://www.longfeng607.com/index.php/LongFeng/Menu"}}, {"type": "node", "id": 11470380240, "lat": 42.1076686, "lon": -75.9316102}, {"type": "node", "id": 11470380241, "lat": 42.10752, "lon": -75.9313063}, {"type": "node", "id": 11470380242, "lat": 42.1078039, "lon": -75.9313438}, {"type": "way", "id": 240078191, "nodes": [2478517252, 6240792467, 2478517255, 2478517256, 2478517257, 2478517258, 2478517259, 2478517260, 2478517261, 2478517262, 2478517263, 2478517264, 2478517265, 2478517266, 2478517267, 2478517268, 2478517269, 2478517270, 2478517271, 2478517272, 2478517273, 2478517274, 2478517275, 2478517276, 2478517277, 2478517278, 2478517279, 2478517280, 2478517252], "tags": {"addr:city": "Binghamton", "addr:housenumber": "33", "addr:postcode": "13901", "addr:state": "NY", "addr:street": "West State Street", "amenity": "restaurant", "building": "yes", "cuisine": "pizza", "name": "New York Pizzeria", "opening_hours": "Mo-Sa 11:00-21:00", "phone": "6077243030", "website": "http://binghamtonpizzeria.com/"}}, {"type": "way", "id": 301097568, "nodes": [3052040793, 3052040794, 3052040795, 3052040796, 3052040793], "tags": {"addr:city": "Binghamton", "addr:housenumber": "161", "addr:postcode": "13905", "addr:state": "NY", "addr:street": "Main Street", "amenity": "restaurant", "building": "yes", "cuisine": "italian", "name": "Piccolo's Cafe", "nysgissam:nysaddresspointid": "BROO015019"}}, {"type": "way", "id": 450684774, "nodes": [4476063229, 4476063230, 4476063231, 4476063232, 4476063233, 4476063234, 7735192903, 4476063235, 4476063236, 4476063237, 4476063229], "tags": {"addr:city": "Binghamton", "addr:housenumber": "119", "addr:postcode": "13903", "addr:state": "NY", "addr:street": "Conklin Avenue", "amenity": "restaurant", "building": "yes", "cuisine": "diner", "name": "Park Diner", "nysgissam:nysaddresspointid": "BROO111272", "smoking": "no", "takeaway": "yes", "website": "http://www.theparkdinerandrestaurant.com/home.php"}}, {"type": "way", "id": 479171973, "nodes": [4723195187, 4723195188, 4723195189, 4723195190, 4723195187], "tags": {"amenity": "restaurant", "building": "yes", "cuisine": "italian", "name": "Little Venice Restaurant"}}, {"type": "way", "id": 479176094, "nodes": [4723229680, 4723229681, 4723229682, 4723229683, 4723229684, 4723229685, 4723229680], "tags": {"addr:city": "Binghamton", "addr:housenumber": "1171", "addr:postcode": "13903", "addr:state": "NY", "addr:street": "Vestal Avenue", "amenity": "restaurant", "building": "yes", "capacity": "100", "cuisine": "italian", "delivery": "no", "name": "Grande's Bella Cucina", "opening_hours": "Mo-Th 11:00-22:00; Fr-Sa 11:00-23:00; Su 12:00-22:00", "outdoor_seating": "no", "smoking": "outside", "takeaway": "yes"}}, {"type": "way", "id": 479176098, "nodes": [4723230799, 4723230800, 4723230801, 4723230802, 4723230803, 4723230804, 4723230805, 4723230806, 4723230799], "tags": {"addr:city": "Binghamton", "addr:housenumber": "33", "addr:postcode": "13903", "addr:state": "NY", "addr:street": "South Washington Street", "amenity": "restaurant", "building": "commercial", "capacity": "75", "cuisine": "steak_house", "delivery": "no", "name": "Number 5", "opening_hours": "Mo-Th 04:00-22:00; Fr-Sa 04:00-23:00; Su 04:00-21:00", "outdoor_seating": "no", "smoking": "outside", "takeaway": "no"}}, {"type": "way", "id": 479176099, "nodes": [4723230807, 4723230808, 4723230809, 4723230810, 4723230807], "tags": {"amenity": "restaurant", "building": "yes", "name": "Common Soil Juicery"}}, {"type": "way", "id": 479176100, "nodes": [4723230811, 4723230812, 4723230813, 4723230814, 4723230811], "tags": {"addr:city": "Binghamton", "addr:housenumber": "43", "addr:postcode": "13903", "addr:state": "NY", "addr:street": "South Washington Street", "amenity": "restaurant", "building": "yes", "name": "Whole in the Wall"}}, {"type": "way", "id": 618604009, "nodes": [5846839651, 5846839648, 5846839647, 5846839646, 5846839645, 5846839651], "tags": {"addr:city": "Binghamton", "addr:housenumber": "128", "addr:postcode": "13901", "addr:state": "NY", "addr:street": "Washington Street", "amenity": "restaurant", "building": "yes", "building:levels": "3", "name": "Binghamton Hots"}}, {"type": "way", "id": 618604017, "nodes": [5846839695, 5846839674, 5846839675, 5846839676, 5846839677, 5846839696, 5846839697, 5846839698, 5846839695], "tags": {"addr:city": "Binghamton", "addr:housenumber": "135", "addr:postcode": "13901", "addr:state": "NY", "addr:street": "Washington Street", "amenity": "restaurant", "building": "yes", "cuisine": "burger", "name": "Craft Bar + Kitchen", "nysgissam:nysaddresspointid": "BROO040931"}}, {"type": "way", "id": 1235588820, "nodes": [8793450754, 11470380240, 11470380241, 11470380242, 8793450754], "tags": {"addr:city": "Binghamton", "addr:housenumber": "246", "addr:postcode": "13905", "addr:state": "NY", "addr:street": "Clinton Street", "amenity": "restaurant", "building": "yes", "name": "Old Union Hotel", "nysgissam:nysaddresspointid": "BROO076134", "phone": "+1-607-217-5935", "website": "https://oldunionhotel.com/"}}]}