{"version": 0.6, "generator": "Overpass API 0.7.62.1 084b4234", "osm3s": {"timestamp_osm_base": "2024-05-27T01:12:42Z", "copyright": "The data included in this document is from www.openstreetmap.org. The data is made available under ODbL."}, "elements": [{"type": "node", "id": 655425272, "lat": 39.9552143, "lon": -75.2002039, "tags": {"amenity": "bar", "name": "Drinkers West"}}, {"type": "node", "id": 1033935437, "lat": 39.9524202, "lon": -75.1755247, "tags": {"addr:housenumber": "2101", "addr:street": "Chestnut Street", "amenity": "bar", "contact:phone": "+1 215-568-3355", "contact:website": "https://mixbarandgrillphilly.com/location/mix-bar-grill", "description": "The bar is open until whenever the rush ends.", "name": "Mix Bar & Grill", "opening_hours": "Mo-We,Su 11:00-22:00; Th-Sa 11:00-23:00", "outdoor_seating": "yes"}}, {"type": "node", "id": 1700198702, "lat": 39.9537387, "lon": -75.2028345, "tags": {"addr:city": "Philadelphia", "amenity": "bar", "name": "Smokey Joe's"}}, {"type": "node", "id": 1980171513, "lat": 39.9417727, "lon": -75.1794507, "tags": {"amenity": "bar", "indoor_seating": "yes", "name": "SideCar Bar", "opening_hours": "Th-Tu 16:00-23:00", "outdoor_seating": "yes", "website": "https://www.thesidecarbar.com/"}}, {"type": "node", "id": 2182345789, "lat": 39.9570682, "lon": -75.2024993, "tags": {"amenity": "bar", "name": "Flynn's Bar"}}, {"type": "node", "id": 2931994044, "lat": 39.9359904, "lon": -75.1722146, "tags": {"addr:city": "Philadelphia", "addr:housenumber": "1216", "addr:postcode": "19146", "addr:street": "South 17th Street", "amenity": "bar", "name": "Se\u00f1or Baynard's Bar & Grill", "phone": "+1 215 462 1888", "smoking": "yes"}}, {"type": "node", "id": 3567104221, "lat": 39.9520229, "lon": -75.1785874}, {"type": "node", "id": 3567104222, "lat": 39.9519678, "lon": -75.1786006}, {"type": "node", "id": 3567104223, "lat": 39.951942, "lon": -75.1784024}, {"type": "node", "id": 3567104224, "lat": 39.9519976, "lon": -75.1783911}, {"type": "node", "id": 6669293565, "lat": 39.9383368, "lon": -75.1900707, "tags": {"amenity": "bar", "craft": "brewery", "name": "Point Breeze Brewing"}}, {"type": "node", "id": 8410340130, "lat": 39.9500338, "lon": -75.1732073, "tags": {"addr:city": "Philadelphia", "addr:housenumber": "210", "addr:postcode": "19103", "addr:street": "West Rittenhouse Square", "amenity": "bar", "check_date": "2023-10-14", "description": "inside Lacroix", "name": "Bar210", "opening_hours": "Mo-Tu off; We-Th 17:00-21:00; Fr-Sa 14:00-21:30; Su 14:00-21:00", "phone": "+1 215-546-9000", "website": "https://www.rittenhousehotel.com/dining/bar210"}}, {"type": "node", "id": 8410340131, "lat": 39.9499956, "lon": -75.1730503, "tags": {"addr:housenumber": "210", "addr:street": "West Rittenhouse Square", "amenity": "bar", "check_date": "2023-10-15", "contact:website": "https://www.rittenhousehotel.com/dining/librarybar", "name": "The Library Bar", "opening_hours": "Mo-Th,Su 17:00-23:00; Fr-Sa 17:00-24:30", "phone": "+1 215-546-9000"}}, {"type": "node", "id": 10300980672, "lat": 39.9520112, "lon": -75.178497}, {"type": "node", "id": 10542176918, "lat": 39.9563015, "lon": -75.1944241, "tags": {"addr:city": "Philadelphia", "addr:housenumber": "3601", "addr:postcode": "19104", "addr:state": "PA", "addr:street": "Market Street", "amenity": "bar", "name": "Pace & Blossom"}}, {"type": "node", "id": 10682204580, "lat": 39.9537491, "lon": -75.1957911, "tags": {"addr:city": "Philadelphia", "addr:housenumber": "3600", "addr:postcode": "19104", "addr:state": "PA", "addr:street": "Sansom Street", "amenity": "bar", "name": "The Living Room Lounge"}}, {"type": "node", "id": 11018275014, "lat": 39.9521242, "lon": -75.174893, "tags": {"addr:city": "Philadelphia", "addr:housenumber": "2034", "addr:state": "PA", "addr:street": "Chestnut Street", "amenity": "bar", "check_date": "2023-10-10", "contact:facebook": "https://www.facebook.com/ButcherBarPHL", "name": "Butcher Bar", "opening_hours": "Mo 11:30-22:00, Tu,Fr-Sa 11:30-26:00, We-Th 11:30-23:00, Su 10:30-22:00", "phone": "+1 215-563-6328", "website": "http://www.butcherbarphilly.com"}}, {"type": "node", "id": 11897497290, "lat": 39.9515478, "lon": -75.1800806, "tags": {"amenity": "bar", "brewery": "Human Robot", "indoor_seating": "yes", "name": "Human Robot", "outdoor_seating": "yes"}}, {"type": "way", "id": 350991334, "nodes": [3567104221, 3567104222, 3567104223, 3567104224, 10300980672, 3567104221], "tags": {"addr:city": "Philadelphia", "addr:housenumber": "120", "addr:state": "PA", "addr:street": "South 23rd Street", "amenity": "bar", "building": "yes", "check_date": "2023-10-10", "contact:instagram": "https://www.instagram.com/bonnersirishpub", "name": "Bonner's Irish Pub", "phone": "+1 215-567-5748"}}]}